OBJECT_NAME,OBJECT_ID,EPOCH,MEAN_MOTION,ECCENTRICITY,INCLINATION,RA_OF_ASC_NODE,ARG_OF_PERICENTER,MEAN_ANOMALY,EPHEMERIS_TYPE,CLASSIFICATION_TYPE,NORAD_CAT_ID,ELEMENT_SET_NO,REV_AT_EPOCH,BSTAR,MEAN_MOTION_DOT,MEAN_MOTION_DDOT
EYESAT A (AO-27),1993-061C,2026-06-09T02:21:47.956608,14.30940069,.00094111,98.6881,227.5146,120.7072,239.5039,0,U,22825,999,70584,.45187314E-4,.74E-6,0
ITAMSAT (IO-26),1993-061D,2026-06-08T22:34:18.348096,14.31366725,.00100485,98.6829,227.2733,106.4244,253.8044,0,U,22826,999,70613,.51394292E-4,.92E-6,0
RADIO ROSTO (RS15),1994-085A,2026-06-09T03:12:54.448992,11.27583633,.0155702,64.8186,316.2407,5.3648,354.8901,0,U,23439,999,29499,.2028419E-3,-.35E-6,0
JAS-2 (FO-29),1996-046B,2026-06-09T02:30:14.711616,13.53273744,.03507773,98.5248,10.0837,117.3510,246.3789,0,U,24278,999,47207,.23942975E-4,-.9E-7,0
FORTE,1997-047A,2026-06-09T00:56:22.979040,14.27941978,.00245304,69.9542,32.4259,287.2570,72.5868,0,U,24920,999,49752,.69008628E-4,.114E-5,0
TECHSAT 1B (GO-32),1998-043D,2026-06-09T06:25:04.528128,14.24426844,.00005985,99.0065,152.8264,183.8868,176.2306,0,U,25397,999,45020,.45500244E-4,.59E-6,0
ISS (ZARYA),1998-067A,2026-06-09T04:35:05.112096,15.49678250,.00068905,51.6332,339.6717,149.5560,210.5830,0,U,25544,999,57051,.12923528E-3,.6847E-4,0
IMAGE,2000-017A,2026-06-08T09:09:06.780672,1.68665472,.7438912,94.2210,315.2579,288.8048,8.8428,0,U,26113,999,16135,.15647506E-1,.33E-6,0
CLUSTER II-FM7 (SAMBA),2000-041A,2026-06-10T10:42:37.438560,0.44840364,.90481912,149.9132,49.6129,266.6863,359.9829,0,U,26410,999,2028,0,.4459E-4,0
CLUSTER II-FM8 (TANGO),2000-045B,2026-06-06T04:22:15.257856,0.44406384,.90462015,150.1407,49.6985,266.6195,3.2041,0,U,26464,999,2026,0,.4544E-4,0
ODIN,2001-007A,2026-06-09T02:04:25.357440,15.73146623,.00065244,97.3859,200.5220,153.1212,207.0391,0,U,26702,999,38812,.97686192E-3,.135654E-2,0
OMNI-M1,2001-026A,2026-06-07T00:52:23.982816,3.92401508,.00145,44.8338,247.6044,52.1985,307.9833,0,U,26857,999,20517,0,-.11E-6,0
PCSAT (NO-44),2001-043C,2026-06-09T06:24:09.717696,14.31953293,.00061078,67.0511,264.7572,264.2587,95.7818,0,U,26931,999,28931,.64107764E-4,.89E-6,0
PROBA-1,2001-049B,2026-06-09T07:17:56.004288,15.07462919,.00555722,97.9600,168.5614,148.3085,212.1508,0,U,26958,999,34243,.191345E-3,.2933E-4,0
SAUDISAT 1C (SO-50),2002-058C,2026-06-09T06:22:34.107456,14.83029337,.00754352,64.5504,153.4942,263.9417,95.3090,0,U,27607,999,26328,.12670693E-3,.928E-5,0
CORIOLIS,2003-001A,2026-06-09T00:33:27.020160,14.19942563,.00130092,98.7126,167.0327,233.7419,126.2556,0,U,27640,999,21306,.60666139E-4,.85E-6,0
CUTE-1 (CO-55),2003-031E,2026-06-09T05:45:04.286016,14.24330800,.00090039,98.6735,168.8984,201.6668,158.4131,0,U,27844,999,19054,.13415447E-3,.266E-5,0
CUBESAT XI-IV (CO-57),2003-031J,2026-06-09T00:19:05.278656,14.23616414,.00085614,98.6766,168.3941,222.5153,137.5363,0,U,27848,999,19021,.11651716E-3,.222E-5,0
MOZHAETS 4 (RS22),2003-042A,2026-06-09T06:55:40.813248,14.73452061,.00101756,98.3475,344.4245,298.1896,238.5217,0,U,27939,999,21438,.7678144E-4,.444E-5,0
